[{"OBJECT_NAME":"SHIYAN-1 (SY-1)","OBJECT_ID":"2004-012A","EPOCH":"2026-03-09T17:40:34.066560","MEAN_MOTION":15.31043463,"ECCENTRICITY":0.00058726,"INCLINATION":97.8764,"RA_OF_ASC_NODE":140.5238,"ARG_OF_PERICENTER":23.6952,"MEAN_ANOMALY":336.4557,"EPHEMERIS_TYPE":0,"CLASSIFICATION_TYPE":"U","NORAD_CAT_ID":28220,"ELEMENT_SET_NO":999,"REV_AT_EPOCH":19586,"BSTAR":0.00054854449,"MEAN_MOTION_DOT":0.00016393,"MEAN_MOTION_DDOT":0},{"OBJECT_NAME":"STARLINK-36485","OBJECT_ID":"2026-002H","EPOCH":"2026-03-09T00:55:00.477408","MEAN_MOTION":15.27581687,"ECCENTRICITY":0.00018137,"INCLINATION":43.002,"RA_OF_ASC_NODE":328.5703,"ARG_OF_PERICENTER":280.2114,"MEAN_ANOMALY":79.8533,"EPHEMERIS_TYPE":0,"CLASSIFICATION_TYPE":"U","NORAD_CAT_ID":67312,"ELEMENT_SET_NO":999,"REV_AT_EPOCH":1098,"BSTAR":0.0017153187,"MEAN_MOTION_DOT":0.00047246,"MEAN_MOTION_DDOT":0}]
